OBJECT_NAME,OBJECT_ID,EPOCH,MEAN_MOTION,ECCENTRICITY,INCLINATION,RA_OF_ASC_NODE,ARG_OF_PERICENTER,MEAN_ANOMALY,EPHEMERIS_TYPE,CLASSIFICATION_TYPE,NORAD_CAT_ID,ELEMENT_SET_NO,REV_AT_EPOCH,BSTAR,MEAN_MOTION_DOT,MEAN_MOTION_DDOT
PROMETHEUS 2-3,2016-067H,2024-07-07T09:40:24.860928,15.17697842,.0010057,98.0930,5.4365,3.3334,356.7963,0,U,41855,999,41880,.64274E-3,.12909E-3,0
DIDO-2,2017-008BE,2024-07-07T18:00:37.209888,16.16858655,.0010307,97.1324,253.0287,250.4122,109.6054,0,U,42000,999,41209,.93169E-3,.1396942E-1,.22611E-5
AALTO-1,2017-036L,2024-07-07T14:32:27.300192,15.73184611,.0007565,97.0984,219.5690,132.6994,227.4909,0,U,42775,999,39231,.87668E-3,.121771E-2,0
CORVUS BC2,2017-042X,2024-07-07T18:22:09.950880,14.97900550,.0008045,97.3731,13.7236,356.2512,3.8650,0,U,42846,999,38052,.283E-3,.328E-4,0
CORVUS BC1,2017-042Y,2024-07-07T22:11:40.915104,14.98059108,.0007389,97.3726,14.2780,1.0649,359.0588,0,U,42847,999,38056,.34681E-3,.4049E-4,0
MIRATA,2017-073C,2024-07-07T05:50:33.904608,15.08559560,.0167075,97.5924,73.7649,191.7938,167.9358,0,U,43015,999,35935,.77795E-3,.16811E-3,0
MAKERSAT 0,2017-073D,2024-07-07T14:09:20.177568,14.98771676,.0193844,97.5752,68.0145,213.3558,145.5330,0,U,43016,999,35897,.49028E-3,.869E-4,0
GOMX-4B,2018-015E,2024-07-07T21:08:45.198816,15.66625905,.0007521,97.6053,5.1269,226.2571,133.8067,0,U,43196,999,35876,.62668E-3,.65928E-3,0
GOMX-4A,2018-015F,2024-07-07T22:35:03.325344,15.82378586,.0007156,97.5943,10.7531,218.3897,141.6863,0,U,43197,999,35915,.73268E-3,.153578E-2,0
CICERO 10,2018-088A,2024-07-07T22:54:48.070656,15.98302689,.0013625,84.9971,163.9556,160.8779,199.3019,0,U,43690,999,31549,.97427E-3,.452722E-2,.84197E-4
SIRION PATHFINDER-2,2018-099B,2024-07-07T09:36:32.358528,15.03018771,.0010145,97.5271,244.9795,208.9731,151.0933,0,U,43759,999,30554,.28651E-3,.3802E-4,0
CORVUS BC4,2018-099K,2024-07-07T13:49:52.222368,15.02296032,.0009695,97.5073,242.3012,277.6331,82.3793,0,U,43767,999,30545,.36441E-3,.4759E-4,0
MOVE-II,2018-099Y,2024-07-07T10:01:15.702240,15.16706228,.0005301,97.5202,252.2283,255.7430,104.3215,0,U,43780,999,30599,.8262E-3,.1615E-3,0
SPACEBEE-7,2018-099BL,2024-07-07T17:17:25.551168,15.12249516,.0009654,97.5476,253.1779,208.6172,151.4530,0,U,43816,999,30551,.762E-3,.13137E-3,0
SPACEBEE-6,2018-099BN,2024-07-07T04:11:44.354688,15.24824771,.0008758,97.5401,258.3365,207.1519,152.9261,0,U,43818,999,30595,.11508E-2,.28606E-3,0
SHIELDS 1,2018-104B,2024-07-08T04:50:43.416960,15.38474698,.0009783,85.0228,268.8390,4.5088,355.6249,0,U,43850,999,30939,.32619E-3,.1244E-3,0
SONATE,2019-038Q,2024-07-07T22:30:50.225184,15.35115693,.0016569,97.7118,184.9728,40.8267,319.4213,0,U,44400,999,27726,.60542E-3,.20668E-3,0
LUCKY-7,2019-038W,2024-07-07T23:02:42.634752,15.46042441,.0012218,97.7006,189.4107,28.7518,331.4402,0,U,44406,999,27757,.82302E-3,.40374E-3,0
DUCHIFAT-3,2019-089C,2024-07-07T15:55:42.673440,15.17149006,.000596,36.9570,284.6283,259.9449,100.0625,0,U,44854,999,25131,.72526E-3,.14652E-3,0
M2 PATHFINDER,2020-037E,2024-07-07T10:27:20.991168,14.97328357,.0012434,97.7767,5.7636,62.0673,298.1806,0,U,45727,999,21897,.31396E-3,.359E-4,0
NETSAT-4,2020-068U,2024-07-07T22:27:25.513344,15.15707548,.000772,97.8069,147.6450,296.3449,63.6990,0,U,46504,999,20731,.4338E-3,.8201E-4,0
NETSAT-3,2020-068V,2024-07-07T09:35:47.001120,15.15103013,.0007228,97.8043,146.5755,309.8334,50.2260,0,U,46505,999,20722,.41084E-3,.763E-4,0
NETSAT-1,2020-068W,2024-07-07T09:45:21.677760,15.13351039,.0006469,97.8066,146.0082,325.0012,35.0792,0,U,46506,999,20718,.36562E-3,.6453E-4,0
NETSAT-2,2020-068X,2024-07-07T10:13:20.258688,15.15617246,.0005908,97.8052,146.7456,332.3823,27.7094,0,U,46507,999,20718,.49546E-3,.9351E-4,0
WILDTRACKCUBE-SIMBA,2021-022K,2024-07-08T03:34:15.276288,15.22073408,.001733,97.4583,86.7356,74.5126,285.8022,0,U,47941,999,18165,.55112E-3,.12602E-3,0
BEESAT-6,2021-022AB,2024-07-07T05:43:16.319712,15.95660576,.0008651,97.4136,99.2357,136.8164,223.3792,0,U,47957,999,18223,.268E-2,.1064699E-1,.53108E-3
SMOG-1,2021-022AJ,2024-07-07T06:24:16.751520,15.79496106,.0007067,97.4548,102.1576,108.1829,252.0208,0,U,47964,999,18139,.19719E-2,.371642E-2,0
BCCSAT-1,2021-022AK,2024-07-07T16:56:17.613024,15.52919250,.0007446,97.4597,97.5946,60.0811,300.1180,0,U,48041,999,18111,.1381E-2,.86659E-3,0
BEESAT-7,2021-022AN,2024-07-07T06:24:42.319872,15.70474442,.0007374,97.4524,98.7119,95.4571,264.7532,0,U,48084,999,18090,.20926E-2,.263971E-2,0
BEESAT-8,2021-022AP,2024-07-06T23:52:53.879520,15.33870435,.0013935,97.4757,91.2936,63.7371,296.5302,0,U,48085,999,18091,.72452E-3,.23774E-3,0
LEDSAT,2021-073D,2024-07-08T04:20:21.971904,15.25557640,.0018841,97.4367,261.1807,205.2088,154.8233,0,U,49069,999,15965,.5941E-3,.15093E-3,0
