PROMETHEUS 2-3          
1 41855U 16067H   24189.40306552  .00012909  00000+0  64274-3 0  9998
2 41855  98.0930   5.4365 0010057   3.3334 356.7963 15.17697842418806
DIDO-2                  
1 42000U 17008BE  24189.75043067  .01396942  22611-5  93169-3 0  9990
2 42000  97.1324 253.0287 0010307 250.4122 109.6054 16.16858655412090
AALTO-1                 
1 42775U 17036L   24189.60587153  .00121771  00000+0  87668-3 0  9997
2 42775  97.0984 219.5690 0007565 132.6994 227.4909 15.73184611392311
CORVUS BC2              
1 42846U 17042X   24189.76539295  .00003280  00000+0  28300-3 0  9996
2 42846  97.3731  13.7236 0008045 356.2512   3.8650 14.97900550380529
CORVUS BC1              
1 42847U 17042Y   24189.92477911  .00004049  00000+0  34681-3 0  9994
2 42847  97.3726  14.2780 0007389   1.0649 359.0588 14.98059108380565
MIRATA                  
1 43015U 17073C   24189.24344797  .00016811  00000+0  77795-3 0  9999
2 43015  97.5924  73.7649 0167075 191.7938 167.9358 15.08559560359359
MAKERSAT 0              
1 43016U 17073D   24189.58981687  .00008690  00000+0  49028-3 0  9996
2 43016  97.5752  68.0145 0193844 213.3558 145.5330 14.98771676358970
GOMX-4B                 
1 43196U 18015E   24189.88107869  .00065928  00000+0  62668-3 0  9999
2 43196  97.6053   5.1269 0007521 226.2571 133.8067 15.66625905358760
GOMX-4A                 
1 43197U 18015F   24189.94101071  .00153578  00000+0  73268-3 0  9993
2 43197  97.5943  10.7531 0007156 218.3897 141.6863 15.82378586359152
CICERO 10               
1 43690U 18088A   24189.95472304  .00452722  84197-4  97427-3 0  9992
2 43690  84.9971 163.9556 0013625 160.8779 199.3019 15.98302689315497
SIRION PATHFINDER-2     
1 43759U 18099B   24189.40037452  .00003802  00000+0  28651-3 0  9991
2 43759  97.5271 244.9795 0010145 208.9731 151.0933 15.03018771305544
CORVUS BC4              
1 43767U 18099K   24189.57629887  .00004759  00000+0  36441-3 0  9995
2 43767  97.5073 242.3012 0009695 277.6331  82.3793 15.02296032305451
MOVE-II                 
1 43780U 18099Y   24189.41754285  .00016150  00000+0  82620-3 0  9992
2 43780  97.5202 252.2283 0005301 255.7430 104.3215 15.16706228305998
SPACEBEE-7              
1 43816U 18099BL  24189.72043462  .00013137  00000+0  76200-3 0  9993
2 43816  97.5476 253.1779 0009654 208.6172 151.4530 15.12249516305515
SPACEBEE-6              
1 43818U 18099BN  24189.17481892  .00028606  00000+0  11508-2 0  9993
2 43818  97.5401 258.3365 0008758 207.1519 152.9261 15.24824771305956
SHIELDS 1               
1 43850U 18104B   24190.20189140  .00012440  00000+0  32619-3 0  9999
2 43850  85.0228 268.8390 0009783   4.5088 355.6249 15.38474698309398
SONATE                  
1 44400U 19038Q   24189.93808131  .00020668  00000+0  60542-3 0  9991
2 44400  97.7118 184.9728 0016569  40.8267 319.4213 15.35115693277266
LUCKY-7                 
1 44406U 19038W   24189.96021568  .00040374  00000+0  82302-3 0  9995
2 44406  97.7006 189.4107 0012218  28.7518 331.4402 15.46042441277570
DUCHIFAT-3              
1 44854U 19089C   24189.66368835  .00014652  00000+0  72526-3 0  9993
2 44854  36.9570 284.6283 0005960 259.9449 100.0625 15.17149006251312
M2 PATHFINDER           
1 45727U 20037E   24189.43565962  .00003590  00000+0  31396-3 0  9992
2 45727  97.7767   5.7636 0012434  62.0673 298.1806 14.97328357218975
NETSAT-4                
1 46504U 20068U   24189.93571196  .00008201  00000+0  43380-3 0  9991
2 46504  97.8069 147.6450 0007720 296.3449  63.6990 15.15707548207319
NETSAT-3                
1 46505U 20068V   24189.39984955  .00007630  00000+0  41084-3 0  9997
2 46505  97.8043 146.5755 0007228 309.8334  50.2260 15.15103013207223
NETSAT-1                
1 46506U 20068W   24189.40650090  .00006453  00000+0  36562-3 0  9997
2 46506  97.8066 146.0082 0006469 325.0012  35.0792 15.13351039207183
NETSAT-2                
1 46507U 20068X   24189.42592892  .00009351  00000+0  49546-3 0  9991
2 46507  97.8052 146.7456 0005908 332.3823  27.7094 15.15617246207189
WILDTRACKCUBE-SIMBA     
1 47941U 21022K   24190.14878792  .00012602  00000+0  55112-3 0  9991
2 47941  97.4583  86.7356 0017330  74.5126 285.8022 15.22073408181657
BEESAT-6                
1 47957U 21022AB  24189.23838333  .01064699  53108-3  26800-2 0  9999
2 47957  97.4136  99.2357 0008651 136.8164 223.3792 15.95660576182232
SMOG-1                  
1 47964U 21022AJ  24189.26686055  .00371642  00000+0  19719-2 0  9990
2 47964  97.4548 102.1576 0007067 108.1829 252.0208 15.79496106181399
BCCSAT-1                
1 48041U 21022AK  24189.70575941  .00086659  00000+0  13810-2 0  9994
2 48041  97.4597  97.5946 0007446  60.0811 300.1180 15.52919250181111
BEESAT-7                
1 48084U 21022AN  24189.26715648  .00263971  00000+0  20926-2 0  9992
2 48084  97.4524  98.7119 0007374  95.4571 264.7532 15.70474442180909
BEESAT-8                
1 48085U 21022AP  24188.99506805  .00023774  00000+0  72452-3 0  9992
2 48085  97.4757  91.2936 0013935  63.7371 296.5302 15.33870435180919
LEDSAT                  
1 49069U 21073D   24190.18080986  .00015093  00000+0  59410-3 0  9996
2 49069  97.4367 261.1807 0018841 205.2088 154.8233 15.25557640159650
